CCSDS_OMM_VERS = 2.0
CREATION_DATE  = 
ORIGINATOR     = 

OBJECT_NAME    = UNKNOWN
OBJECT_ID      = 
CENTER_NAME    = EARTH
REF_FRAME      = TEME
TIME_SYSTEM    = UTC
MEAN_ELEMENT_THEORY = SGP/SGP4

EPOCH          = 2025-12-24T08:21:30.057120
MEAN_MOTION    = 12.32526626
ECCENTRICITY   = .06715479
INCLINATION    = 66.0266
RA_OF_ASC_NODE = 229.9532
ARG_OF_PERICENTER = 273.1152
MEAN_ANOMALY   = 79.3261

EPHEMERIS_TYPE = 0
CLASSIFICATION_TYPE = U
NORAD_CAT_ID   = 270324
ELEMENT_SET_NO = 999
REV_AT_EPOCH   = 24961
BSTAR          = .12641635E-4
MEAN_MOTION_DOT = -.52E-6
MEAN_MOTION_DDOT = 0

CCSDS_OMM_VERS = 2.0
CREATION_DATE  = 
ORIGINATOR     = 

OBJECT_NAME    = UNKNOWN
OBJECT_ID      = 
CENTER_NAME    = EARTH
REF_FRAME      = TEME
TIME_SYSTEM    = UTC
MEAN_ELEMENT_THEORY = SGP/SGP4

EPOCH          = 2025-12-30T06:20:41.627616
MEAN_MOTION    = 12.96955586
ECCENTRICITY   = .00338176
INCLINATION    = 90.2328
RA_OF_ASC_NODE = 353.1557
ARG_OF_PERICENTER = 137.8166
MEAN_ANOMALY   = 222.5566

EPHEMERIS_TYPE = 0
CLASSIFICATION_TYPE = U
NORAD_CAT_ID   = 270325
ELEMENT_SET_NO = 999
REV_AT_EPOCH   = 24348
BSTAR          = .18885683E-2
MEAN_MOTION_DOT = .553E-5
MEAN_MOTION_DDOT = 0

CCSDS_OMM_VERS = 2.0
CREATION_DATE  = 
ORIGINATOR     = 

OBJECT_NAME    = UNKNOWN
OBJECT_ID      = 
CENTER_NAME    = EARTH
REF_FRAME      = TEME
TIME_SYSTEM    = UTC
MEAN_ELEMENT_THEORY = SGP/SGP4

EPOCH          = 2025-12-21T07:24:31.324032
MEAN_MOTION    = 13.01525667
ECCENTRICITY   = .00340356
INCLINATION    = 90.2341
RA_OF_ASC_NODE = 0.0432
ARG_OF_PERICENTER = 112.3895
MEAN_ANOMALY   = 248.0840

EPHEMERIS_TYPE = 0
CLASSIFICATION_TYPE = U
NORAD_CAT_ID   = 270326
ELEMENT_SET_NO = 999
REV_AT_EPOCH   = 26565
BSTAR          = .2857728E-2
MEAN_MOTION_DOT = .889E-5
MEAN_MOTION_DDOT = 0

CCSDS_OMM_VERS = 2.0
CREATION_DATE  = 
ORIGINATOR     = 

OBJECT_NAME    = UNKNOWN
OBJECT_ID      = 
CENTER_NAME    = EARTH
REF_FRAME      = TEME
TIME_SYSTEM    = UTC
MEAN_ELEMENT_THEORY = SGP/SGP4

EPOCH          = 2025-12-30T12:22:32.338848
MEAN_MOTION    = 12.95824321
ECCENTRICITY   = .00287338
INCLINATION    = 90.2857
RA_OF_ASC_NODE = 29.8522
ARG_OF_PERICENTER = 197.5836
MEAN_ANOMALY   = 162.4292

EPHEMERIS_TYPE = 0
CLASSIFICATION_TYPE = U
NORAD_CAT_ID   = 270327
ELEMENT_SET_NO = 999
REV_AT_EPOCH   = 24439
BSTAR          = .12972936E-2
MEAN_MOTION_DOT = .376E-5
MEAN_MOTION_DDOT = 0

CCSDS_OMM_VERS = 2.0
CREATION_DATE  = 
ORIGINATOR     = 

OBJECT_NAME    = UNKNOWN
OBJECT_ID      = 
CENTER_NAME    = EARTH
REF_FRAME      = TEME
TIME_SYSTEM    = UTC
MEAN_ELEMENT_THEORY = SGP/SGP4

EPOCH          = 2025-12-23T17:00:47.671776
MEAN_MOTION    = 12.95138593
ECCENTRICITY   = .01839408
INCLINATION    = 63.4593
RA_OF_ASC_NODE = 4.8797
ARG_OF_PERICENTER = 3.6691
MEAN_ANOMALY   = 356.5611

EPHEMERIS_TYPE = 0
CLASSIFICATION_TYPE = U
NORAD_CAT_ID   = 270328
ELEMENT_SET_NO = 999
REV_AT_EPOCH   = 26404
BSTAR          = .17366471E-2
MEAN_MOTION_DOT = .449E-5
MEAN_MOTION_DDOT = 0

CCSDS_OMM_VERS = 2.0
CREATION_DATE  = 
ORIGINATOR     = 

OBJECT_NAME    = UNKNOWN
OBJECT_ID      = 
CENTER_NAME    = EARTH
REF_FRAME      = TEME
TIME_SYSTEM    = UTC
MEAN_ELEMENT_THEORY = SGP/SGP4

EPOCH          = 2026-01-03T05:35:02.368320
MEAN_MOTION    = 14.37015571
ECCENTRICITY   = .0002194
INCLINATION    = 86.3961
RA_OF_ASC_NODE = 358.0628
ARG_OF_PERICENTER = 81.1454
MEAN_ANOMALY   = 278.9992

EPHEMERIS_TYPE = 0
CLASSIFICATION_TYPE = U
NORAD_CAT_ID   = 270329
ELEMENT_SET_NO = 999
REV_AT_EPOCH   = 25803
BSTAR          = .40502504E-3
MEAN_MOTION_DOT = .122E-4
MEAN_MOTION_DDOT = 0

CCSDS_OMM_VERS = 2.0
CREATION_DATE  = 
ORIGINATOR     = 

OBJECT_NAME    = UNKNOWN
OBJECT_ID      = 
CENTER_NAME    = EARTH
REF_FRAME      = TEME
TIME_SYSTEM    = UTC
MEAN_ELEMENT_THEORY = SGP/SGP4

EPOCH          = 2026-01-03T04:55:49.463904
MEAN_MOTION    = 13.41992162
ECCENTRICITY   = .00486688
INCLINATION    = 100.3031
RA_OF_ASC_NODE = 182.3138
ARG_OF_PERICENTER = 256.6750
MEAN_ANOMALY   = 102.8948

EPHEMERIS_TYPE = 0
CLASSIFICATION_TYPE = U
NORAD_CAT_ID   = 270330
ELEMENT_SET_NO = 999
REV_AT_EPOCH   = 25035
BSTAR          = .53149446E-2
MEAN_MOTION_DOT = .2958E-4
MEAN_MOTION_DDOT = 0

CCSDS_OMM_VERS = 2.0
CREATION_DATE  = 
ORIGINATOR     = 

OBJECT_NAME    = UNKNOWN
OBJECT_ID      = 
CENTER_NAME    = EARTH
REF_FRAME      = TEME
TIME_SYSTEM    = UTC
MEAN_ELEMENT_THEORY = SGP/SGP4

EPOCH          = 2026-01-02T08:16:18.053760
MEAN_MOTION    = 14.52617083
ECCENTRICITY   = .01002328
INCLINATION    = 86.4380
RA_OF_ASC_NODE = 214.6143
ARG_OF_PERICENTER = 9.3358
MEAN_ANOMALY   = 350.9679

EPHEMERIS_TYPE = 0
CLASSIFICATION_TYPE = U
NORAD_CAT_ID   = 270332
ELEMENT_SET_NO = 999
REV_AT_EPOCH   = 840
BSTAR          = .46035307E-2
MEAN_MOTION_DOT = .20181E-3
MEAN_MOTION_DDOT = 0

CCSDS_OMM_VERS = 2.0
CREATION_DATE  = 
ORIGINATOR     = 

OBJECT_NAME    = UNKNOWN
OBJECT_ID      = 
CENTER_NAME    = EARTH
REF_FRAME      = TEME
TIME_SYSTEM    = UTC
MEAN_ELEMENT_THEORY = SGP/SGP4

EPOCH          = 2025-12-27T15:45:41.833152
MEAN_MOTION    = 14.28548978
ECCENTRICITY   = .02116405
INCLINATION    = 97.7182
RA_OF_ASC_NODE = 133.0080
ARG_OF_PERICENTER = 231.6649
MEAN_ANOMALY   = 126.5346

EPHEMERIS_TYPE = 0
CLASSIFICATION_TYPE = U
NORAD_CAT_ID   = 270333
ELEMENT_SET_NO = 999
REV_AT_EPOCH   = 4974
BSTAR          = .351035E-2
MEAN_MOTION_DOT = .11169E-3
MEAN_MOTION_DDOT = 0

CCSDS_OMM_VERS = 2.0
CREATION_DATE  = 
ORIGINATOR     = 

OBJECT_NAME    = UNKNOWN
OBJECT_ID      = 
CENTER_NAME    = EARTH
REF_FRAME      = TEME
TIME_SYSTEM    = UTC
MEAN_ELEMENT_THEORY = SGP/SGP4

EPOCH          = 2026-01-03T12:28:22.538784
MEAN_MOTION    = 14.15336869
ECCENTRICITY   = .01771938
INCLINATION    = 86.4506
RA_OF_ASC_NODE = 289.1679
ARG_OF_PERICENTER = 115.3962
MEAN_ANOMALY   = 246.5685

EPHEMERIS_TYPE = 0
CLASSIFICATION_TYPE = U
NORAD_CAT_ID   = 270334
ELEMENT_SET_NO = 999
REV_AT_EPOCH   = 28473
BSTAR          = .62532259E-2
MEAN_MOTION_DOT = .14211E-3
MEAN_MOTION_DDOT = 0

CCSDS_OMM_VERS = 2.0
CREATION_DATE  = 
ORIGINATOR     = 

OBJECT_NAME    = UNKNOWN
OBJECT_ID      = 
CENTER_NAME    = EARTH
REF_FRAME      = TEME
TIME_SYSTEM    = UTC
MEAN_ELEMENT_THEORY = SGP/SGP4

EPOCH          = 2025-12-05T09:59:50.028000
MEAN_MOTION    = 14.14556800
ECCENTRICITY   = .00715215
INCLINATION    = 66.6644
RA_OF_ASC_NODE = 221.7704
ARG_OF_PERICENTER = 72.2649
MEAN_ANOMALY   = 288.6230

EPHEMERIS_TYPE = 0
CLASSIFICATION_TYPE = U
NORAD_CAT_ID   = 270335
ELEMENT_SET_NO = 999
REV_AT_EPOCH   = 23613
BSTAR          = .60294632E-3
MEAN_MOTION_DOT = .1105E-4
MEAN_MOTION_DDOT = 0

CCSDS_OMM_VERS = 2.0
CREATION_DATE  = 
ORIGINATOR     = 

OBJECT_NAME    = UNKNOWN
OBJECT_ID      = 
CENTER_NAME    = EARTH
REF_FRAME      = TEME
TIME_SYSTEM    = UTC
MEAN_ELEMENT_THEORY = SGP/SGP4

EPOCH          = 2025-12-28T04:52:31.476576
MEAN_MOTION    = 14.25717569
ECCENTRICITY   = .00102754
INCLINATION    = 81.2830
RA_OF_ASC_NODE = 172.3826
ARG_OF_PERICENTER = 261.8327
MEAN_ANOMALY   = 98.1688

EPHEMERIS_TYPE = 0
CLASSIFICATION_TYPE = U
NORAD_CAT_ID   = 270336
ELEMENT_SET_NO = 999
REV_AT_EPOCH   = 23765
BSTAR          = .14279456E-2
MEAN_MOTION_DOT = .3402E-4
MEAN_MOTION_DDOT = 0

CCSDS_OMM_VERS = 2.0
CREATION_DATE  = 
ORIGINATOR     = 

OBJECT_NAME    = UNKNOWN
OBJECT_ID      = 
CENTER_NAME    = EARTH
REF_FRAME      = TEME
TIME_SYSTEM    = UTC
MEAN_ELEMENT_THEORY = SGP/SGP4

EPOCH          = 2026-01-02T06:58:13.161504
MEAN_MOTION    = 13.04699596
ECCENTRICITY   = .00309416
INCLINATION    = 90.1550
RA_OF_ASC_NODE = 5.2894
ARG_OF_PERICENTER = 190.2762
MEAN_ANOMALY   = 169.7735

EPHEMERIS_TYPE = 0
CLASSIFICATION_TYPE = U
NORAD_CAT_ID   = 270337
ELEMENT_SET_NO = 999
REV_AT_EPOCH   = 22070
BSTAR          = .35515803E-2
MEAN_MOTION_DOT = .1153E-4
MEAN_MOTION_DDOT = 0

CCSDS_OMM_VERS = 2.0
CREATION_DATE  = 
ORIGINATOR     = 

OBJECT_NAME    = UNKNOWN
OBJECT_ID      = 
CENTER_NAME    = EARTH
REF_FRAME      = TEME
TIME_SYSTEM    = UTC
MEAN_ELEMENT_THEORY = SGP/SGP4

EPOCH          = 2025-12-25T03:23:47.612256
MEAN_MOTION    = 13.84098216
ECCENTRICITY   = .01463197
INCLINATION    = 99.0940
RA_OF_ASC_NODE = 316.2856
ARG_OF_PERICENTER = 139.7770
MEAN_ANOMALY   = 221.4322

EPHEMERIS_TYPE = 0
CLASSIFICATION_TYPE = U
NORAD_CAT_ID   = 270338
ELEMENT_SET_NO = 999
REV_AT_EPOCH   = 22881
BSTAR          = .63069816E-3
MEAN_MOTION_DOT = .721E-5
MEAN_MOTION_DDOT = 0

CCSDS_OMM_VERS = 2.0
CREATION_DATE  = 
ORIGINATOR     = 

OBJECT_NAME    = UNKNOWN
OBJECT_ID      = 
CENTER_NAME    = EARTH
REF_FRAME      = TEME
TIME_SYSTEM    = UTC
MEAN_ELEMENT_THEORY = SGP/SGP4

EPOCH          = 2025-12-30T11:38:52.846368
MEAN_MOTION    = 12.16118948
ECCENTRICITY   = .08448539
INCLINATION    = 83.2302
RA_OF_ASC_NODE = 270.4724
ARG_OF_PERICENTER = 229.3810
MEAN_ANOMALY   = 123.0774

EPHEMERIS_TYPE = 0
CLASSIFICATION_TYPE = U
NORAD_CAT_ID   = 270339
ELEMENT_SET_NO = 999
REV_AT_EPOCH   = 20440
BSTAR          = -.3127398E-2
MEAN_MOTION_DOT = -.941E-5
MEAN_MOTION_DDOT = 0

CCSDS_OMM_VERS = 2.0
CREATION_DATE  = 
ORIGINATOR     = 

OBJECT_NAME    = UNKNOWN
OBJECT_ID      = 
CENTER_NAME    = EARTH
REF_FRAME      = TEME
TIME_SYSTEM    = UTC
MEAN_ELEMENT_THEORY = SGP/SGP4

EPOCH          = 2026-01-02T09:52:36.267168
MEAN_MOTION    = 13.83810620
ECCENTRICITY   = .01463159
INCLINATION    = 98.8127
RA_OF_ASC_NODE = 243.5962
ARG_OF_PERICENTER = 69.2280
MEAN_ANOMALY   = 292.4483

EPHEMERIS_TYPE = 0
CLASSIFICATION_TYPE = U
NORAD_CAT_ID   = 270340
ELEMENT_SET_NO = 999
REV_AT_EPOCH   = 23060
BSTAR          = .790758E-3
MEAN_MOTION_DOT = .912E-5
MEAN_MOTION_DDOT = 0

